{"type":"FeatureCollection","features":[{"type":"Feature","id":"way/134640256","properties":{"type":"way","id":134640256,"tags":{"addr:city":"Volta Mantovana","addr:housenumber":"73","addr:postcode":"46049","addr:street":"Via Ferrante Gonzaga","building":"yes","name":"D più","shop":"supermarket"},"relations":[],"meta":{}},"geometry":{"type":"Polygon","coordinates":[[[10.6687653,45.320319],[10.6693793,45.3202314],[10.6694197,45.3203714],[10.6688057,45.320459],[10.6687653,45.320319]]]}},{"type":"Feature","id":"way/232894036","properties":{"type":"way","id":232894036,"tags":{"addr:city":"Volta Mantovana","addr:country":"IT","building":"supermarket","contact:website":"http://www.martinellisupermercati.it/","name":"Martinelli","shop":"supermarket"},"relations":[],"meta":{}},"geometry":{"type":"Polygon","coordinates":[[[10.6598529,45.3113475],[10.6597681,45.3108327],[10.6597349,45.3108354],[10.6597031,45.3106421],[10.6599086,45.3106254],[10.6599122,45.3106477],[10.6600939,45.3106329],[10.6601627,45.3110508],[10.6602226,45.3110459],[10.6602667,45.3113138],[10.6598529,45.3113475]]]}},{"type":"Feature","id":"way/232894044","properties":{"type":"way","id":232894044,"tags":{"addr:city":"Volta Mantovana","addr:country":"IT","addr:housenumber":"17","addr:postcode":"46049","addr:street":"Piazza 20 Settembre","building":"yes","lottery":"yes","name":"Giornalaio","opening_hours":"Mo-Su 05:00-20:00","shop":"newsagent"},"relations":[],"meta":{}},"geometry":{"type":"Polygon","coordinates":[[[10.6600933,45.3213682],[10.6601265,45.3213181],[10.6601977,45.3213414],[10.6601645,45.3213915],[10.6600933,45.3213682]]]}},{"type":"Feature","id":"way/351094416","properties":{"type":"way","id":351094416,"tags":{"addr:city":"Volta Mantovana","addr:housenumber":"6","addr:postcode":"46049","addr:street":"Via 1848","building":"yes","email":"pezzinimaurizio@libero.it","facebook":"https://www.facebook.com/panificiopezzini.it/","name":"Panificio Pezzini","phone":"+39 0376 83086","shop":"bakery","website":"http://www.panificiopezzini.com/"},"relations":[],"meta":{}},"geometry":{"type":"Polygon","coordinates":[[[10.6584041,45.321882],[10.6584765,45.3218278],[10.658515,45.3218507],[10.6586115,45.3219193],[10.6585464,45.3219702],[10.6584041,45.321882]]]}},{"type":"Feature","id":"node/2412100338","properties":{"type":"node","id":2412100338,"tags":{"addr:city":"Volta Mantovana","addr:housenumber":"5-7","addr:postcode":"46049","addr:street":"Viale Risorgimento","name":"La Dispensa Contadina","opening_hours":"Mo-Sa 08:30-13:00, 16:00-19:30","shop":"greengrocer","source":"survey (mapping party maggio 2016)"},"relations":[],"meta":{}},"geometry":{"type":"Point","coordinates":[10.660022,45.3231407]}},{"type":"Feature","id":"node/2412100343","properties":{"type":"node","id":2412100343,"tags":{"addr:city":"Volta Mantovana","addr:housenumber":"6","addr:postcode":"46049","addr:street":"Viale Risorgimento","name":"Ottica Borghini","phone":"+39 0376 801310","shop":"optician"},"relations":[],"meta":{}},"geometry":{"type":"Point","coordinates":[10.6603345,45.3229097]}},{"type":"Feature","id":"node/3492073882","properties":{"type":"node","id":3492073882,"tags":{"addr:city":"Volta Mantovana","addr:housenumber":"23","addr:postcode":"46049","addr:street":"Viale Risorgimento","name":"Colorificio Galeazzi","shop":"yes"},"relations":[],"meta":{}},"geometry":{"type":"Point","coordinates":[10.6604649,45.3234729]}},{"type":"Feature","id":"node/3492073883","properties":{"type":"node","id":3492073883,"tags":{"addr:city":"Volta Mantovana","addr:housenumber":"14","addr:postcode":"46049","addr:street":"Viale Risorgimento","name":"Onoranze funebri Viesi","shop":"yes"},"relations":[],"meta":{}},"geometry":{"type":"Point","coordinates":[10.6604417,45.3231578]}},{"type":"Feature","id":"node/3492086593","properties":{"type":"node","id":3492086593,"tags":{"addr:city":"Volta Mantovana","addr:housenumber":"4","addr:postcode":"46049","addr:street":"Piazza Giuseppe Garibaldi","facebook":"https://www.facebook.com/tabaccheriatosatto/","lottery":"yes","name":"Tabaccheria Tosatto","note":"Mo-Sa 6:30-13:00, 15:00-19:30; Su 07:00-12:30","phone":"+39 0376 83393","salt":"yes","shop":"tobacco"},"relations":[],"meta":{}},"geometry":{"type":"Point","coordinates":[10.6593018,45.3227083]}},{"type":"Feature","id":"node/3563113605","properties":{"type":"node","id":3563113605,"tags":{"shop":"car_repair"},"relations":[],"meta":{}},"geometry":{"type":"Point","coordinates":[10.6601046,45.3176605]}},{"type":"Feature","id":"node/3822807993","properties":{"type":"node","id":3822807993,"tags":{"addr:city":"Volta Mantovana","addr:housenumber":"9","addr:postcode":"46049","addr:street":"Via Mondini","name":"Jenny's world","shop":"travel_agency","website":"http://www.jennysworld.it/"},"relations":[],"meta":{}},"geometry":{"type":"Point","coordinates":[10.659355,45.3217688]}},{"type":"Feature","id":"node/3822849820","properties":{"type":"node","id":3822849820,"tags":{"addr:city":"Volta Mantovana","addr:housenumber":"29/1","addr:postcode":"46049","addr:street":"Via 1848","name":"Osso X osso","opening_hours":"Su off; Tu-Sa 9:30-13:00,15:30-19:00","phone":"+39 0376 83742","shop":"pet","website":"https://www.facebook.com/OSSO-X-OSSO-951400698211046/"},"relations":[],"meta":{}},"geometry":{"type":"Point","coordinates":[10.658938,45.3223662]}},{"type":"Feature","id":"node/3822863363","properties":{"type":"node","id":3822863363,"tags":{"addr:city":"Volta Mantovana","addr:housenumber":"26","addr:postcode":"46049","addr:street":"Via 1848","name":"Macelleria Cassini","opening_hours":"Tu-Sa 8:30-12:30, 16:00-19:30; Su off","phone":"+39 348 729 2500","shop":"butcher","website":"https://it-it.facebook.com/MacelleriaCassini/"},"relations":[],"meta":{}},"geometry":{"type":"Point","coordinates":[10.6591771,45.3224415]}},{"type":"Feature","id":"node/3822871002","properties":{"type":"node","id":3822871002,"tags":{"addr:city":"Volta Mantovana","addr:housenumber":"11","addr:postcode":"46049","addr:street":"Piazza 20 Settembre","name":"Biancospino di Gabriella Soldà","opening_hours":"Mo off; Tu-Sa 08:30-12:30,16:00-19:30; Su 09:15-12:30","shop":"florist"},"relations":[],"meta":{}},"geometry":{"type":"Point","coordinates":[10.6598591,45.3214795]}},{"type":"Feature","id":"node/3822878618","properties":{"type":"node","id":3822878618,"tags":{"addr:city":"Volta Mantovana","addr:country":"IT","addr:housenumber":"9","addr:postcode":"46049","addr:street":"Piazza 20 Settembre","name":"Ammirando","shop":"boutique","wheelchair":"yes"},"relations":[],"meta":{}},"geometry":{"type":"Point","coordinates":[10.6598902,45.3214067]}},{"type":"Feature","id":"node/3822884476","properties":{"type":"node","id":3822884476,"tags":{"addr:city":"Volta Mantovana","addr:country":"IT","addr:housenumber":"12","addr:postcode":"46049","addr:street":"Piazza 20 Settembre","name":"Stockmania","operator":"Salgarolo Sandra","shop":"boutique"},"relations":[],"meta":{}},"geometry":{"type":"Point","coordinates":[10.659972,45.3214933]}},{"type":"Feature","id":"node/3822888112","properties":{"type":"node","id":3822888112,"tags":{"addr:city":"Volta Mantovana","addr:housenumber":"5D","addr:postcode":"46049","addr:street":"Via San Martino","name":"Capelli in armonia Erika","opening_hours":"Mo-Sa 08:30-12:00,15:00-19:30","shop":"hairdresser"},"relations":[],"meta":{}},"geometry":{"type":"Point","coordinates":[10.6594886,45.3233886]}},{"type":"Feature","id":"node/3822888132","properties":{"type":"node","id":3822888132,"tags":{"addr:city":"Volta Mantovana","addr:housenumber":"11","addr:postcode":"46049","addr:street":"Viale Risorgimento","name":"pin up abbigliamento","opening_hours":"15:30-19 lunedi chiuso","shop":"clothes","source":"survey (mapping party maggio 2016)"},"relations":[],"meta":{}},"geometry":{"type":"Point","coordinates":[10.6601844,45.3232408]}},{"type":"Feature","id":"node/3822888133","properties":{"type":"node","id":3822888133,"tags":{"addr:city":"Volta Mantovana","addr:housenumber":"13","addr:postcode":"46049","addr:street":"Viale Risorgimento","name":"estetico medical tatoo mika","shop":"beauty","source":"survey (mapping party maggio 2016)"},"relations":[],"meta":{}},"geometry":{"type":"Point","coordinates":[10.6602585,45.3232873]}},{"type":"Feature","id":"node/3822896171","properties":{"type":"node","id":3822896171,"tags":{"addr:city":"Volta Mantovana","addr:housenumber":"31","addr:postcode":"46049","addr:street":"Via San Martino","name":"Dany Calzature","opening_hours":"Mo-Sa 09:00-12:30,16:00-19:00","shop":"shoes"},"relations":[],"meta":{}},"geometry":{"type":"Point","coordinates":[10.6595159,45.3223656]}},{"type":"Feature","id":"node/3822924179","properties":{"type":"node","id":3822924179,"tags":{"addr:city":"Volta Mantovana","addr:housenumber":"25","addr:postcode":"46049","addr:street":"Via San Martino","name":"Creazioni Bimbo","note":"Bomboniere e torte di pannolini","opening_hours":"Mo 9:00-12:30, Tu-Sa 9:00-12:30, 15:30-19:00","phone":"+39 339 6797323","shop":"clothes"},"relations":[],"meta":{}},"geometry":{"type":"Point","coordinates":[10.6596038,45.3221676]}},{"type":"Feature","id":"node/3822924184","properties":{"type":"node","id":3822924184,"tags":{"addr:city":"Volta Mantovana","addr:housenumber":"1","addr:postcode":"46049","addr:street":"Via Custoza","name":"Gastronomia Guastalla","phone":"+39 0376 83370","shop":"deli"},"relations":[],"meta":{}},"geometry":{"type":"Point","coordinates":[10.6598196,45.3219337]}},{"type":"Feature","id":"node/3822942614","properties":{"type":"node","id":3822942614,"tags":{"addr:city":"Volta Mantovana","addr:country":"IT","addr:housenumber":"22","addr:postcode":"46049","addr:street":"Piazza 20 Settembre","fixme":"Non si conosce il tipo di attività","name":"La Coccinella","operator":"Elisa Bellesini","phone":"+39 0376 83551","shop":"yes"},"relations":[],"meta":{}},"geometry":{"type":"Point","coordinates":[10.6605365,45.3208803]}},{"type":"Feature","id":"node/4100706536","properties":{"type":"node","id":4100706536,"tags":{"addr:city":"Volta Mantovana","addr:country":"IT","addr:housenumber":"39","addr:postcode":"46049","addr:street":"Via Solferino","name":"La Vecchia Bottega di Sassello","shop":"bakery"},"relations":[],"meta":{}},"geometry":{"type":"Point","coordinates":[10.6549474,45.3197648]}},{"type":"Feature","id":"node/4226306693","properties":{"type":"node","id":4226306693,"tags":{"addr:city":"Volta Mantovana","addr:housenumber":"4","addr:postcode":"46049","addr:street":"Via San Martino","description":"Abbigliamento uomo e donna\nTu-Sa 09:00-12:00, 16:00-19:00","name":"South Beach","shop":"clothes"},"relations":[],"meta":{}},"geometry":{"type":"Point","coordinates":[10.659886,45.3215634]}},{"type":"Feature","id":"node/4226361144","properties":{"type":"node","id":4226361144,"tags":{"addr:city":"Volta Mantovana","addr:housenumber":"5","addr:postcode":"46049","addr:street":"Via San Martino","description":"Tu-Sa 09:00-12:30, 15:30-19:30\nMo 09:00-12:30","name":"Erboristeria Toldi","shop":"herbalist"},"relations":[],"meta":{}},"geometry":{"type":"Point","coordinates":[10.6597864,45.3216103]}},{"type":"Feature","id":"node/4227235182","properties":{"type":"node","id":4227235182,"tags":{"addr:city":"Volta Mantovana","addr:country":"IT","addr:housenumber":"11","addr:postcode":"46049","addr:street":"Via Cattaneo","name":"Dacci un Taglio","shop":"hairdresser"},"relations":[],"meta":{}},"geometry":{"type":"Point","coordinates":[10.661401,45.3231004]}},{"type":"Feature","id":"node/4228453150","properties":{"type":"node","id":4228453150,"tags":{"addr:city":"Volta Mantovana","addr:housenumber":"27","addr:postcode":"46049","addr:street":"Via Roma","facebook":"https://www.facebook.com/unmondodifirme.voltamantovana/","name":"Un mondo di firme","opening_hours":"Jun-Aug: Mo-Sa 09:00-12:30, 16:00-19:30; Mo off; PH off; Sep-May: Mo-Sa 09:00-12:30, 15:30-19:30; Mo off; PH off","phone":"+39 0376 801289","shop":"clothes","website":"http://www.unmondodifirme.it/"},"relations":[],"meta":{}},"geometry":{"type":"Point","coordinates":[10.6607765,45.3203972]}},{"type":"Feature","id":"node/4228547560","properties":{"type":"node","id":4228547560,"tags":{"addr:city":"Volta Mantovana","addr:housenumber":"31C","addr:postcode":"46049","addr:street":"Via Roma","facebook":"https://www.facebook.com/pages/Il-Gomitolo-Di-Pippo/962893853723434","fixme":"Cercare gli orari di apertura","name":"Il gomitolo di Pippo - Filati, merceria e tende da sole","operator":"Fontana Gisella","phone":"+39 339 20 65 210","shop":"fabric","shop_1":"curtain"},"relations":[],"meta":{}},"geometry":{"type":"Point","coordinates":[10.6640723,45.3205363]}},{"type":"Feature","id":"node/4228573064","properties":{"type":"node","id":4228573064,"tags":{"shop":"tobacco"},"relations":[],"meta":{}},"geometry":{"type":"Point","coordinates":[10.6621128,45.320968]}},{"type":"Feature","id":"node/4229002041","properties":{"type":"node","id":4229002041,"tags":{"addr:city":"Volta Mantovana","addr:housenumber":"45i","addr:postcode":"46049","addr:street":"Via Roma","name":"Il fiore all'occhiello","opening_hours":"08:30-12:30,15:00-19:30","shop":"florist"},"relations":[],"meta":{}},"geometry":{"type":"Point","coordinates":[10.6686664,45.319923]}},{"type":"Feature","id":"node/4229002042","properties":{"type":"node","id":4229002042,"tags":{"addr:city":"Volta Mantovana","addr:housenumber":"45g","addr:postcode":"46049","addr:street":"Via Roma","name":"L'Aurora","shop":"pastry"},"relations":[],"meta":{}},"geometry":{"type":"Point","coordinates":[10.6678656,45.3200338]}},{"type":"Feature","id":"node/4229002088","properties":{"type":"node","id":4229002088,"tags":{"name":"Point Service","shop":"car_repair"},"relations":[],"meta":{}},"geometry":{"type":"Point","coordinates":[10.6711642,45.3203422]}},{"type":"Feature","id":"node/4338114316","properties":{"type":"node","id":4338114316,"tags":{"addr:city":"Volta Mantovana","addr:housenumber":"19","addr:postcode":"46049","addr:street":"Piazza XX Settembre","name":"Ottoboni Franco - Elettronica e Telefonia","opening_hours":"Tu-Sa 09:00-12:30, 16:00-19:30; Mo off; PH off","operator":"Franco Ottoboni","phone":"+39 0376 801742","shop":"electronics"},"relations":[],"meta":{}},"geometry":{"type":"Point","coordinates":[10.6604654,45.3210372]}}]}
