{"type":"FeatureCollection","features":[{"type":"Feature","id":"node/1341791659","properties":{"type":"node","id":1341791659,"tags":{"addr:city":"Volta Mantovana","addr:country":"IT","addr:housenumber":"1","addr:postcode":"46049","addr:street":"Piazza Giuseppe Garibaldi","amenity":"restaurant","cuisine":"pizza","cuisine_1":"regional","cuisine_2":"fish","email":"conte.francesco@alice.it","facebook":"https://www.facebook.com/ristorantemiramontivoltamantovana","name":"Miramonti pizzeria Ristorante","opening_hours":"We off; Th-Mo 12.00-15.00, 19.00-00.00","operator":"Blonda Vito & C. SNC","phone":"+39 0376 83496","ref:vatin":"IT01928300209","website":"www.ristorantemiramontivoltamantovana.com"},"relations":[],"meta":{}},"geometry":{"type":"Point","coordinates":[10.6593607,45.3225487]}},{"type":"Feature","id":"node/3814285566","properties":{"type":"node","id":3814285566,"tags":{"addr:city":"Volta Mantovana","addr:country":"IT","addr:housenumber":"15A","addr:postcode":"46049","addr:street":"Via Beata Paola Montaldi","amenity":"restaurant","cuisine":"italian","cuisine_1":"regional","email":"enoteca@enotecagonzaga.com","name":"Enoteca Gonzaga","opening_hours":"Mo off; Tu-Su 07:00-24:00","phone":"+39 0376 801110","smoking":"no","website":"http://www.enotecagonzaga.com/"},"relations":[],"meta":{}},"geometry":{"type":"Point","coordinates":[10.6590693,45.3206607]}},{"type":"Feature","id":"node/3822881388","properties":{"type":"node","id":3822881388,"tags":{"addr:city":"Volta Mantovana","addr:housenumber":"12","addr:postcode":"46049","addr:street":"Via 1848","amenity":"restaurant","capacity":"60","contact:email":"info@trattoriastangada.it","cuisine":"regional","name":"Trattoria La Stangada","opening_hours":"Mo off; Tu-Su 12:00-14:30, 19:00-22:00","phone":"+39 0376 801769","smoking":"no"},"relations":[],"meta":{}},"geometry":{"type":"Point","coordinates":[10.6591798,45.3215757]}},{"type":"Feature","id":"node/3824399608","properties":{"type":"node","id":3824399608,"tags":{"addr:city":"Volta Mantovana","addr:housenumber":"1","addr:postcode":"46049","addr:street":"Via Mondini","amenity":"restaurant","cuisine":"regional","name":"Tam Tam","phone":"+39 037683070","smoking":"no"},"relations":[],"meta":{}},"geometry":{"type":"Point","coordinates":[10.6597073,45.3216851]}},{"type":"Feature","id":"node/4229002076","properties":{"type":"node","id":4229002076,"tags":{"addr:city":"Volta Mantovana","addr:housenumber":"45l","addr:postcode":"46049","addr:street":"Via Roma","amenity":"fast_food","cuisine":"pizza","name":"Me Gusta","phone":"+39 037 6801138","takeaway":"yes"},"relations":[],"meta":{}},"geometry":{"type":"Point","coordinates":[10.6687298,45.3199119]}},{"type":"Feature","id":"node/4229024689","properties":{"type":"node","id":4229024689,"tags":{"addr:city":"Volta Mantovana","addr:housenumber":"120","addr:postcode":"46049","addr:street":"Via Roma","amenity":"restaurant","contact:email":"info@cortezuccone.it","contact:website":"http://www.cortezuccone.it/","cuisine":"regional","email":"info@cortezuccone.it","name":"Corte Zuccona","phone":"+39 0376 838097","phone_1":"+39 348 004 4085","smoking":"no","tourism":"guest_house","website":"http://www.cortezuccone.it/"},"relations":[],"meta":{}},"geometry":{"type":"Point","coordinates":[10.6691108,45.3195924]}},{"type":"Feature","id":"node/4294169111","properties":{"type":"node","id":4294169111,"tags":{"addr:city":"Volta Mantovana","addr:country":"IT","addr:housenumber":"9","addr:postcode":"46049","addr:street":"Strada Volta-Pozzolo","amenity":"restaurant","cuisine":"regional","email":"info@villadeimulini.eu","email_1":"info@villadeimulini.eu","name":"Ristorante Al Vecchio Mulino","phone":"+ 39 0376 1888003","phone_1":"+ 39 3492479125","phone_2":"+ 39 335 6471788","website":"http://www.ilvecchiomulino.net/"},"relations":[],"meta":{}},"geometry":{"type":"Point","coordinates":[10.7003669,45.3090846]}},{"type":"Feature","id":"node/4295490993","properties":{"type":"node","id":4295490993,"tags":{"addr:city":"Volta Mantovana","addr:country":"IT","addr:housenumber":"20","addr:postcode":"46049","addr:street":"Via dei Boschi","amenity":"restaurant","cuisine":"regional","email":"info@cascinaboschi.com","name":"Agriturismo Cascina Boschi - Ristorante e Bed & Breakfast","operator":"Societ√† Agricola La Fontana S.s.","phone":"+39 0376 812887","tourism":"guest_house","website":"http://www.cascinaboschi.com/"},"relations":[],"meta":{}},"geometry":{"type":"Point","coordinates":[10.7089135,45.3233784]}},{"type":"Feature","id":"node/4295490994","properties":{"type":"node","id":4295490994,"tags":{"addr:city":"Volta Mantovana","addr:country":"IT","addr:housenumber":"9","addr:postcode":"46049","addr:street":"Strada Bezzetti","amenity":"restaurant","cuisine":"regional","email":"info@corteciva.it","name":"Agriturismo Corte Civa","opening_hours":"We-Sa 19:00-24:00; Su 12:00-24:00","operator":"Stephan Masoner","phone":"+39 0376 838717","website":"http://www.corteciva.it/"},"relations":[],"meta":{}},"geometry":{"type":"Point","coordinates":[10.6570499,45.3451218]}},{"type":"Feature","id":"node/4295490995","properties":{"type":"node","id":4295490995,"tags":{"addr:city":"Volta Mantovana","addr:country":"IT","addr:housenumber":"51","addr:postcode":"46049","addr:street":"Via Goito","amenity":"restaurant","cuisine":"regional","email":"info@hotellavalle.net","fax":"+39 0376 803052","internet_access":"wifi","internet_access:fee":"no","name":"Hotel ristorante La Valle","operator":"Nicoletta e Fabio Bertagna","phone":"+39 0376 803217","smoking":"no","tourism":"hotel","website":"http://www.hotellavalle.net/it/","wifi":"free (for hotel guests)"},"relations":[],"meta":{}},"geometry":{"type":"Point","coordinates":[10.6586073,45.3168017]}}]}
